[{"OBJECT_NAME":"RANDEV","OBJECT_ID":"2022-065E","EPOCH":"2026-03-09T22:32:03.893280","MEAN_MOTION":14.63497049,"ECCENTRICITY":0.00074498,"INCLINATION":98.2039,"RA_OF_ASC_NODE":213.5498,"ARG_OF_PERICENTER":344.9996,"MEAN_ANOMALY":15.0984,"EPHEMERIS_TYPE":0,"CLASSIFICATION_TYPE":"U","NORAD_CAT_ID":52898,"ELEMENT_SET_NO":999,"REV_AT_EPOCH":19673,"BSTAR":0.00033412405,"MEAN_MOTION_DOT":1.684e-5,"MEAN_MOTION_DDOT":0},{"OBJECT_NAME":"NOAA 16 DEB","OBJECT_ID":"2000-055FJ","EPOCH":"2026-03-09T12:27:46.504800","MEAN_MOTION":14.60793292,"ECCENTRICITY":0.00401117,"INCLINATION":98.9851,"RA_OF_ASC_NODE":325.2459,"ARG_OF_PERICENTER":357.5721,"MEAN_ANOMALY":2.5276,"EPHEMERIS_TYPE":0,"CLASSIFICATION_TYPE":"U","NORAD_CAT_ID":41258,"ELEMENT_SET_NO":999,"REV_AT_EPOCH":53200,"BSTAR":0.0027130354,"MEAN_MOTION_DOT":0.00013366,"MEAN_MOTION_DDOT":0}]
